ONEWEB-0597             
1 54663U 22166X   25056.77763129 -.00000113  00000+0 -30577-3 0  9992
2 54663  87.9354 338.9452 0001576  83.6233 276.5080 13.21826076108609
ONEWEB-0601             
1 54665U 22166Z   25056.82807584 -.00000288  00000+0 -72794-3 0  9994
2 54665  87.9355 338.9441 0001350  81.8707 278.2580 13.21824616108776
ONEWEB-0602             
1 54666U 22166AA  25056.79339501 -.00000296  00000+0 -74869-3 0  9994
2 54666  87.9354 338.9527 0001646  87.0988 273.0335 13.21825633108612
ONEWEB-0603             
1 54667U 22166AB  25056.79812211 -.00000194  00000+0 -50242-3 0  9995
2 54667  87.9329 338.9243 0001525  84.9956 275.1351 13.21825041108543
ONEWEB-0604             
1 54668U 22166AC  25056.86119713  .00000024  00000+0  27010-4 0  9999
2 54668  87.9350 338.9064 0001702  88.3634 271.7695 13.21823911108511
ONEWEB-0605             
1 54669U 22166AD  25056.85488582 -.00000158  00000+0 -41520-3 0  9993
2 54669  87.9351 338.9390 0001016  71.4270 288.6974 13.21824165108588
ONEWEB-0606             
1 54670U 22166AE  25056.80127803  .00000113  00000+0  24187-3 0  9995
2 54670  87.9357 338.9540 0001951  75.6584 284.4766 13.21823803108632
